{
    "links": {
        "self": "http://www.neowsapp.com/rest/v1/neo/3762168?api_key=iIulBulltgU6a56xZRHN4H3l9WmuAYTsLGpBGhQ2"
    },
    "id": "3762168",
    "neo_reference_id": "3762168",
    "name": "(2016 UC57)",
    "designation": "2016 UC57",
    "nasa_jpl_url": "http://ssd.jpl.nasa.gov/sbdb.cgi?sstr=3762168",
    "absolute_magnitude_h": 23.9,
    "estimated_diameter": {
        "kilometers": {
            "estimated_diameter_min": 0.04411182,
            "estimated_diameter_max": 0.0986370281
        },
        "meters": {
            "estimated_diameter_min": 44.1118199997,
            "estimated_diameter_max": 98.6370281305
        },
        "miles": {
            "estimated_diameter_min": 0.0274098057,
            "estimated_diameter_max": 0.0612901888
        },
        "feet": {
            "estimated_diameter_min": 144.7238235278,
            "estimated_diameter_max": 323.6123073718
        }
    },
    "is_potentially_hazardous_asteroid": false,
    "close_approach_data": [
        {
            "close_approach_date": "1997-11-05",
            "close_approach_date_full": "1997-Nov-05 21:24",
            "epoch_date_close_approach": 878765040000,
            "relative_velocity": {
                "kilometers_per_second": "5.7156887412",
                "kilometers_per_hour": "20576.4794684785",
                "miles_per_hour": "12785.4241452888"
            },
            "miss_distance": {
                "astronomical": "0.1916177356",
                "lunar": "74.5392991484",
                "kilometers": "28665605.099983172",
                "miles": "17811981.0565928936"
            },
            "orbiting_body": "Earth"
        },
        {
            "close_approach_date": "2014-05-21",
            "close_approach_date_full": "2014-May-21 19:41",
            "epoch_date_close_approach": 1400701260000,
            "relative_velocity": {
                "kilometers_per_second": "5.5340571417",
                "kilometers_per_hour": "19922.6057102514",
                "miles_per_hour": "12379.1324203504"
            },
            "miss_distance": {
                "astronomical": "0.0681472583",
                "lunar": "26.5092834787",
                "kilometers": "10194684.688019821",
                "miles": "6334683.3219666898"
            },
            "orbiting_body": "Mars"
        },
        {
            "close_approach_date": "2016-11-15",
            "close_approach_date_full": "2016-Nov-15 00:55",
            "epoch_date_close_approach": 1479171300000,
            "relative_velocity": {
                "kilometers_per_second": "5.1573910339",
                "kilometers_per_hour": "18566.6077221456",
                "miles_per_hour": "11536.5680037965"
            },
            "miss_distance": {
                "astronomical": "0.1050825222",
                "lunar": "40.8771011358",
                "kilometers": "15720121.495347714",
                "miles": "9768030.5476138932"
            },
            "orbiting_body": "Earth"
        },
        {
            "close_approach_date": "2035-11-22",
            "close_approach_date_full": "2035-Nov-22 23:13",
            "epoch_date_close_approach": 2079385980000,
            "relative_velocity": {
                "kilometers_per_second": "5.7477989408",
                "kilometers_per_hour": "20692.0761867318",
                "miles_per_hour": "12857.2514505834"
            },
            "miss_distance": {
                "astronomical": "0.171482078",
                "lunar": "66.706528342",
                "kilometers": "25653353.61197386",
                "miles": "15940254.775044868"
            },
            "orbiting_body": "Earth"
        }
    ],
    "orbital_data": {
        "orbit_id": "10",
        "orbit_determination_date": "2018-02-10 07:08:28",
        "first_observation_date": "2016-10-29",
        "last_observation_date": "2016-12-04",
        "data_arc_in_days": 36,
        "observations_used": 64,
        "orbit_uncertainty": "6",
        "minimum_orbit_intersection": ".105499",
        "jupiter_tisserand_invariant": "4.822",
        "epoch_osculation": "2459000.5",
        "eccentricity": ".1945916177868615",
        "semi_major_axis": "1.357350032492213",
        "inclination": "9.476243631549705",
        "ascending_node_longitude": "52.26964640600094",
        "orbital_period": "577.6120081941135",
        "perihelion_distance": "1.093221093766505",
        "perihelion_argument": "6.298097017426718",
        "aphelion_distance": "1.621478971217923",
        "perihelion_time": "2458869.046864978128",
        "mean_anomaly": "81.92892103442989",
        "mean_motion": ".6232557406926652",
        "equinox": "J2000",
        "orbit_class": {
            "orbit_class_type": "AMO",
            "orbit_class_description": "Near-Earth asteroid orbits similar to that of 1221 Amor",
            "orbit_class_range": "1.017 AU < q (perihelion) < 1.3 AU"
        }
    },
    "is_sentry_object": false
}